#aV2014 11  7  0  0  0.00000000     288 DD+AD WGS84 FIT  NGA
## 1817 432000.00000000   300.00000000 56968 0.0000000000000
+   31     1  2  4  5  6  7  8  9 10 11 12 13 14 15 16 17 18
+         19 20 21 22 23 24 25 26 27 28 29 30 31 32  0  0  0
+          0  0  0  0  0  0  0  0  0  0  0  0  0  0  0  0  0
+          0  0  0  0  0  0  0  0  0  0  0  0  0  0  0  0  0
+          0  0  0  0  0  0  0  0  0  0  0  0  0  0  0  0  0
++         2  2  2  2  2  2  2  2  2  2  2  2  2  2  2  2  2
++         2  2  2  2  2  2  2  2  2  2  2  2  2  2  0  0  0
++         0  0  0  0  0  0  0  0  0  0  0  0  0  0  0  0  0
++         0  0  0  0  0  0  0  0  0  0  0  0  0  0  0  0  0
++         0  0  0  0  0  0  0  0  0  0  0  0  0  0  0  0  0
%c cc cc ccc ccc cccc cccc cccc cccc ccccc ccccc ccccc ccccc
%c cc cc ccc ccc cccc cccc cccc cccc ccccc ccccc ccccc ccccc
%f  0.0000000  0.000000000  0.00000000000  0.000000000000000
%f  0.0000000  0.000000000  0.00000000000  0.000000000000000
%i    0    0    0    0      0      0      0      0         0
%i    0    0    0    0      0      0      0      0         0
/*      NGA, ST. LOUIS,MO.                                  
/*   EPHEMERIS COMPUTED FROM  1 DAYS OF DATA                
/*   EPOCHA SMOOTHER                                       
/* CCCCCCCCCCCCCCCCCCCCCCCCCCCCCCCCCCCCCCCCCCCCCCCCCCCCCCCCC
*  2014 11  7 23 15  0.00000000
P  1 -13350.632297  19162.624644  12447.641361    -12.368858                    
V  1   1211.155153 -16087.614199  26112.930444      0.004067                    
P  2  14605.347249   5794.484221 -21128.620161    528.784378                    
V  2  -5484.845242  27071.234283   3102.704175      0.022037                    
P  4 -15408.871627  12837.407174  16933.376078     -2.659762                    
V  4   2315.258315 -22340.744207  18930.324863     -0.005346                    
P  5  24830.362816   -563.670052  -9705.175898   -320.604239                    
V  5 -10811.309312   6330.107243 -27993.904163      0.043545                    
P  6   8075.889284  18693.892761 -17075.292771      7.559968                    
V  6  -6385.467809  20756.936179  19705.364411      0.046712                    
P  7  -6833.187625  25451.193325   -640.237429    410.405665                    
V  7  -2468.578607  -1585.072479 -32221.903653      0.038379                    
P  8 -15545.832857  15295.235976 -14460.450622     16.233837                    
V  8   4789.274331 -18409.546127 -24892.920648      0.001667                    
P  9   -462.925319  18066.379139 -19458.701350     -1.898873                    
V  9 -19101.812757 -15741.796526 -14171.565937     -0.068126                    
P 10  12588.364822  11877.859211 -20612.752833   -148.876623                    
V 10 -24023.293486   8054.186722  -9785.409943     -0.015156                    
P 11 -13248.793166  13439.484345  18114.205178   -534.691668                    
V 11  -5131.161422 -23994.980872  13824.879021     -0.028818                    
P 12  23827.975523 -10096.336841  -5540.468472    244.592986                    
V 12   7242.071064    166.171511  31474.901779      0.027861                    
P 13  12741.724803  22100.592256  -7299.399467    -58.453192                    
V 13  -7693.137114  -5336.334687 -30373.224951     -0.038925                    
P 14 -13722.864846 -21793.838599   7037.770394    117.860100                    
V 14   7517.753680   4724.902749  30155.711797     -0.036041                    
P 15  16971.686881  -4828.215132  19870.339905   -213.261778                    
V 15  18606.297129  17307.240882 -11335.926427     -0.022235                    
P 16 -24870.612700   -562.144360  -9862.046757   -182.423544                    
V 16  11597.352946  -4306.902704 -28818.475061      0.028023                    
P 17  13401.877137  21598.348055   8370.004087   -136.065551                    
V 17  -8662.611179  -5743.745772  29429.390570     -0.025813                    
P 18   3996.583747 -17274.511917  20161.630959    356.757620                    
V 18  24013.190832  -6368.438950 -10780.069913      0.026118                    
P 19 -18990.614727  -2082.546260  18469.443447   -487.104843                    
V 19 -14912.497076 -18360.319158 -16808.405298     -0.016971                    
P 20 -19028.012660  15559.323126 -10175.140940    254.090639                    
V 20 -13103.905898   1400.327710  27251.184755      0.042314                    
P 21   1373.063335 -25858.164157   5448.831410   -393.655218                    
V 21   5073.649315  -5274.056990 -30349.949225     -0.020560                    
P 22 -10352.971115 -13194.600267  20836.238691    284.742145                    
V 22  24579.015480  -8795.445151   6544.849690      0.039027                    
P 23 -11099.902481  10667.682455 -21521.162744    -65.662806                    
V 23 -20277.432511 -18818.788634    703.599097     -0.027834                    
P 24  14392.412119 -16318.864407  15136.046250    -38.081362                    
V 24  -1812.268697  19353.593438  22676.991436     -0.006025                    
P 25  14050.101057 -15775.394176 -16092.573706     15.253711                    
V 25  19862.102875  -4523.492300  22015.240321     -0.016427                    
P 26  20646.992794   9795.914744  13106.045254   -115.312994                    
V 26  10260.006608  14439.710231 -25410.121518     -0.129522                    
P 27 -22101.965770 -10180.084726  10717.348173     28.190804                    
V 27  -8485.758926 -10870.077341 -27714.404808      0.028380                    
P 28   4500.286611  14231.049937  22591.917717    396.801290                    
V 28 -26359.953042   6326.456605   1182.323373      0.025616                    
P 29   2940.496958 -16850.615205 -20301.090624    571.777885                    
V 29  18687.390962  17809.312265 -12023.643318      0.024585                    
P 30     59.620340  24463.965214  10282.486659    -78.729235                    
V 30  -6339.251382  11732.568133 -27930.392346     -0.026385                    
P 31  -8629.637647 -16643.947090 -18528.263424    329.396810                    
V 31   7379.659066 -22799.934715  17214.623688     -0.005892                    
P 32 -25817.779804   4471.642979   1726.638485   -299.198761                    
V 32   1356.602559  -4099.308406  31718.068677      0.089190                    
EOF
